OBJECT_NAME,OBJECT_ID,EPOCH,MEAN_MOTION,ECCENTRICITY,INCLINATION,RA_OF_ASC_NODE,ARG_OF_PERICENTER,MEAN_ANOMALY,EPHEMERIS_TYPE,CLASSIFICATION_TYPE,NORAD_CAT_ID,ELEMENT_SET_NO,REV_AT_EPOCH,BSTAR,MEAN_MOTION_DOT,MEAN_MOTION_DDOT
GALAXY 25 (G-25),1997-026A,2024-01-20T06:09:10.649664,0.99093102,.000649,5.1593,77.7280,272.0683,273.5805,0,U,24812,999,9751,0,.81E-6,0
INTELSAT 5 (IS-5),1997-046A,2024-01-20T12:29:35.644416,1.00272356,.0005435,8.4784,56.6980,208.0291,208.2012,0,U,24916,999,9681,0,-.67E-6,0
GALAXY 11 (G-11),1999-071A,2024-01-20T15:26:41.100000,1.00271598,.0000536,4.4975,81.1222,172.8428,263.4965,0,U,26038,999,8827,0,-.56E-6,0
INTELSAT 9 (IS-9),2000-043A,2024-01-20T13:16:07.346784,1.00270986,.000378,8.4638,56.8970,233.3256,338.2233,0,U,26451,999,3533,0,-.291E-5,0
INTELSAT 1R (IS-1R),2000-072A,2024-01-20T15:10:59.408256,1.00272581,.000216,5.8720,74.2852,233.5288,196.5555,0,U,26608,999,3251,0,-.141E-5,0
INTELSAT 901 (IS-901),2001-024A,2024-01-20T10:55:53.588640,1.00270036,.0000873,0.0575,258.1231,38.7677,318.8918,0,U,26824,999,1417,0,-.198E-5,0
INTELSAT 902 (IS-902),2001-039A,2024-01-20T10:49:22.613952,1.00270404,.0002766,3.8804,82.4026,225.7517,283.4039,0,U,26900,999,8188,0,-.282E-5,0
INTELSAT 904 (IS-904),2002-007A,2024-01-20T10:55:15.995136,1.00272093,.0003145,4.7032,79.5578,221.4555,312.6093,0,U,27380,999,4295,0,-.215E-5,0
INTELSAT 905 (IS-905),2002-027A,2024-01-20T10:56:46.220928,1.00270758,.0003025,4.5278,80.2297,222.3226,316.4492,0,U,27438,999,4255,0,-.185E-5,0
GALAXY 3C (G-3C),2002-030A,2024-01-20T15:00:36.632736,1.00271323,.0001048,1.4671,88.8433,233.2002,287.7367,0,U,27445,999,7914,0,-.149E-5,0
INTELSAT 906 (IS-906),2002-041A,2024-01-20T09:39:04.584960,1.00272827,.000552,3.5540,83.6899,198.8929,45.6016,0,U,27513,999,7821,0,.14E-6,0
GALAXY 23 (G-23),2003-034A,2024-01-20T14:19:40.671264,1.00272866,.0002667,0.9204,91.1576,214.5075,267.8301,0,U,27854,999,7493,0,.16E-6,0
GALAXY 13 (HORIZONS-1),2003-044A,2024-01-20T13:38:12.523200,1.00267193,.0003324,0.0171,275.7998,266.3814,351.7898,0,U,27954,999,3776,0,.137E-5,0
XM-3 (RHYTHM),2005-008A,2024-01-20T10:35:18.366720,1.00268763,.0000293,0.0403,220.6667,356.8980,335.4414,0,U,28626,999,3381,0,-.2E-5,0
DIRECTV 8,2005-019A,2024-01-20T14:21:39.663072,1.00271127,.0003235,0.0275,59.9266,246.3001,269.6082,0,U,28659,999,6837,0,.5E-7,0
GALAXY 28 (G-28),2005-022A,2024-01-20T11:54:55.274112,1.00271288,.0006604,1.0246,89.7187,195.7864,283.5644,0,U,28702,999,4317,0,-.181E-5,0
GALAXY 14 (G-14),2005-030A,2024-01-20T11:13:11.179200,1.00271783,.0001669,2.7478,85.6378,211.1117,23.7441,0,U,28790,999,6749,0,.156E-5,0
SPACEWAY 2,2005-046B,2024-01-20T13:52:46.039296,1.00270324,.0000642,3.2550,82.0035,149.4527,317.2556,0,U,28903,999,4253,0,.104E-5,0
GALAXY 16 (G-16),2006-023A,2024-01-20T14:47:11.963616,1.00271377,.0002735,0.0550,248.5495,49.1550,304.5513,0,U,29236,999,6416,0,-.122E-5,0
DIRECTV 9S,2006-043A,2024-01-20T14:45:06.287904,1.00272293,.0003224,0.1459,88.9034,212.9102,297.7288,0,U,29494,999,4257,0,-.109E-5,0
GALAXY 17 (G-17),2007-016B,2024-01-20T10:35:14.045856,1.00271644,.0005096,0.7376,91.4065,217.5152,244.1872,0,U,31307,999,6099,0,-.202E-5,0
DIRECTV 10,2007-032A,2024-01-20T14:43:24.435264,1.00267188,.0000572,0.0253,140.8433,170.2665,286.4222,0,U,31862,999,3678,0,-.98E-6,0
SPACEWAY 3,2007-036A,2024-01-20T10:46:29.681760,0.99780817,.0001181,1.7082,87.2687,348.9853,144.5037,0,U,32018,999,3774,0,-.25E-5,0
INTELSAT 11 (IS-11),2007-044B,2024-01-20T10:51:22.912992,1.00270911,.000331,1.2798,89.6772,213.1277,296.3496,0,U,32253,999,5968,0,-.265E-5,0
HORIZONS-2,2007-063B,2024-01-20T10:42:36.599616,1.00271374,.0002235,0.3265,91.2134,211.3708,263.5634,0,U,32388,999,5900,0,-.249E-5,0
